NORAD_CAT_ID,OBJECT_NAME,OBJECT_TYPE,EPOCH,MEAN_MOTION,ECCENTRICITY,INCLINATION,RA_OF_ASC_NODE,ARG_OF_PERICENTER,MEAN_ANOMALY,BSTAR,MEAN_MOTION_DOT,MEAN_MOTION_DDOT,TLE_LINE0,TLE_LINE1,TLE_LINE2,SEMIMAJOR_AXIS,PERIOD,APOGEE,PERIGEE,DECAYED
44767,STARLINK-1062,PAYLOAD,2022-12-01 16:31:00,15.06395781,0.0001813,53.0544,186.7012,60.8817,299.2353,4.291899999999999e-05,3.58e-06,0.0,0 STARLINK-1062,1 44767U 19074BG  22335.68819646  .00000358  00000-0  42919-4 0  9997,2 44767  53.0544 186.7012 0001813  60.8817 299.2353 15.06395781168237,6925.361,95.592,548.482,545.971,0.0
44767,STARLINK-1062,PAYLOAD,2022-12-01 21:17:37,15.06397612,0.00018,53.0542,185.8082,61.6526,298.4645,5.977600000000001e-05,6.09e-06,0.0,0 STARLINK-1062,1 44767U 19074BG  22335.88723561  .00000609  00000-0  59776-4 0  9997,2 44767  53.0542 185.8082 0001800  61.6526 298.4645 15.06397612168436,6925.356,95.592,548.467,545.974,0.0
44767,STARLINK-1062,PAYLOAD,2022-12-02 11:37:28,15.06397145,0.0001807,53.0541,183.1277,62.282,297.8353,0.00016275,2.143e-05,0.0,0 STARLINK-1062,1 44767U 19074BG  22336.48435432  .00002143  00000-0  16275-3 0  9992,2 44767  53.0541 183.1277 0001807  62.2820 297.8353 15.06397145168354,6925.357,95.592,548.474,545.971,0.0
44767,STARLINK-1062,PAYLOAD,2022-12-02 16:24:05,15.06398821,0.000181,53.0542,182.2342,62.6326,297.4847,0.00017227,2.285e-05,0.0,0 STARLINK-1062,1 44767U 19074BG  22336.68339401  .00002285  00000-0  17227-3 0  9998,2 44767  53.0542 182.2342 0001810  62.6326 297.4847 15.06398821168386,6925.352,95.592,548.471,545.964,0.0
44767,STARLINK-1062,PAYLOAD,2022-12-03 00:21:49,15.06372986,0.0002385,53.054,180.7451,58.2409,301.8812,-6.0328e-05,-1.18e-05,0.0,0 STARLINK-1062,1 44767U 19074BG  22337.01515589 -.00001180  00000-0 -60328-4 0  9995,2 44767  53.0540 180.7451 0002385  58.2409 301.8812 15.06372986168600,6925.431,95.594,548.948,545.645,0.0
44767,STARLINK-1062,PAYLOAD,2022-12-03 13:06:08,15.06374014,0.0001226,53.0569,178.3605,58.6764,301.4345,-3.9648e-05,-8.71e-06,0.0,0 STARLINK-1062,1 44767U 19074BG  22337.54593176 -.00000871  00000-0 -39648-4 0  9998,2 44767  53.0569 178.3605 0001226  58.6764 301.4345 15.06374014168517,6925.428000000001,95.594,548.1419999999998,546.444,0.0
44767,STARLINK-1062,PAYLOAD,2022-12-03 21:03:49,15.06390429,0.0001688,53.054,176.8728,67.3128,292.8040000000001,2.4801e-05,8.8e-07,0.0,0 STARLINK-1062,1 44767U 19074BG  22337.87765752  .00000088  00000-0  24801-4 0  9998,2 44767  53.0540 176.8728 0001688  67.3128 292.8040 15.06390429168566,6925.378000000002,95.593,548.4119999999998,546.0740000000002,0.0
44767,STARLINK-1062,PAYLOAD,2022-12-04 14:34:45,15.06393826,0.0001773,53.0539,173.5968,68.3448,291.773,3.0583e-05,1.74e-06,0.0,0 STARLINK-1062,1 44767U 19074BG  22338.60747475  .00000174  00000-0  30583-4 0  9992,2 44767  53.0539 173.5968 0001773  68.3448 291.7730 15.06393826168675,6925.3669999999975,95.593,548.46,546.005,0.0
44767,STARLINK-1062,PAYLOAD,2022-12-04 19:21:22,15.06396323,0.0001725,53.0536,172.7026,71.0256,289.092,6.1635e-05,6.36e-06,0.0,0 STARLINK-1062,1 44767U 19074BG  22338.80651436  .00000636  00000-0  61635-4 0  9990,2 44767  53.0536 172.7026 0001725  71.0256 289.0920 15.06396323168703,6925.36,95.592,548.419,546.03,0.0
44767,STARLINK-1062,PAYLOAD,2022-12-05 00:07:59,15.06414375,0.000137,53.0557,171.8082,63.0735,297.0394,0.00070772,0.0001028,0.0,0 STARLINK-1062,1 44767U 19074BG  22339.00554559  .00010280  00000-0  70772-3 0  9998,2 44767  53.0557 171.8082 0001370  63.0735 297.0394 15.06414375168901,6925.305,95.591,548.118,546.221,0.0
44767,STARLINK-1062,PAYLOAD,2022-12-05 06:30:08,15.06415352,0.0001330999999999,53.055,170.6174,61.8652,298.2471,0.00064659,9.366e-05,0.0,0 STARLINK-1062,1 44767U 19074BG  22339.27093037  .00009366  00000-0  64659-3 0  9996,2 44767  53.0550 170.6174 0001331  61.8652 298.2471 15.06415352168774,6925.302,95.591,548.0880000000002,546.245,0.0
44767,STARLINK-1062,PAYLOAD,2022-12-05 17:38:55,15.06408645,0.0001528,53.0535,168.5338,66.8075,293.3075,0.00027982,3.89e-05,0.0,0 STARLINK-1062,1 44767U 19074BG  22339.73536057  .00003890  00000-0  27982-3 0  9995,2 44767  53.0535 168.5338 0001528  66.8075 293.3075 15.06408645169018,6925.321999999999,95.592,548.245,546.129,0.0
44767,STARLINK-1062,PAYLOAD,2022-12-05 19:14:27,15.06406801,0.0001622,53.0534,168.2358,69.8218,290.2945,0.00021222,2.881e-05,0.0,0 STARLINK-1062,1 44767U 19074BG  22339.80170757  .00002881  00000-0  21222-3 0  9994,2 44767  53.0534 168.2358 0001622  69.8218 290.2945 15.06406801168858,6925.328,95.592,548.316,546.069,0.0
44767,STARLINK-1062,PAYLOAD,2022-12-06 15:56:28,15.06395556,0.0001528,53.0545,164.3639,66.9408,293.1742,1.607e-05,-4.2e-07,0.0,0 STARLINK-1062,1 44767U 19074BG  22340.66422292 -.00000042  00000-0  16070-4 0  9998,2 44767  53.0545 164.3639 0001528  66.9408 293.1742 15.06395556168988,6925.361999999999,95.592,548.285,546.169,0.0
44767,STARLINK-1062,PAYLOAD,2022-12-06 20:43:05,15.06397203,0.0001539,53.0548,163.4706,66.4845,293.6306,1.8226e-05,-1e-07,0.0,0 STARLINK-1062,1 44767U 19074BG  22340.86326110 -.00000010  00000-0  18226-4 0  9992,2 44767  53.0548 163.4706 0001539  66.4845 293.6306 15.06397203169183,6925.357,95.592,548.288,546.156,0.0
44767,STARLINK-1062,PAYLOAD,2022-12-07 12:38:28,15.06403083,0.000137,53.0547,160.4919,64.859,295.2541,1.0342e-05,-1.27e-06,0.0,0 STARLINK-1062,1 44767U 19074BG  22341.52672169 -.00000127  00000-0  10342-4 0  9994,2 44767  53.0547 160.4919 0001370  64.8590 295.2541 15.06403083169281,6925.339,95.592,548.153,546.255,0.0
44767,STARLINK-1062,PAYLOAD,2022-12-07 20:36:10,15.06404806,0.0001385999999999,53.0547,159.0028,65.339,294.7743,3.5353e-05,2.45e-06,0.0,0 STARLINK-1062,1 44767U 19074BG  22341.85845361  .00000245  00000-0  35353-4 0  9995,2 44767  53.0547 159.0028 0001386  65.3390 294.7743 15.06404806169166,6925.334,95.592,548.159,546.239,0.0
44767,STARLINK-1062,PAYLOAD,2022-12-08 12:31:34,15.06396462,0.0001327,53.0544,156.0236,60.8583,299.2539,6.4873e-05,6.85e-06,0.0,0 STARLINK-1062,1 44767U 19074BG  22342.52192589  .00000685  00000-0  64873-4 0  9994,2 44767  53.0544 156.0236 0001327  60.8583 299.2539 15.06396462169262,6925.359,95.592,548.143,546.305,0.0
44767,STARLINK-1062,PAYLOAD,2022-12-08 18:53:44,15.06392368,0.0001341,53.0544,154.8322,60.6039,299.5084,2.4158e-05,7.8e-07,0.0,0 STARLINK-1062,1 44767U 19074BG  22342.78731737  .00000078  00000-0  24158-4 0  9994,2 44767  53.0544 154.8322 0001341  60.6039 299.5084 15.06392368169476,6925.371999999999,95.593,548.1659999999998,546.308,0.0
44767,STARLINK-1062,PAYLOAD,2022-12-09 04:26:58,15.06395554,0.0001398,53.0547,153.0453,63.9475,296.1658,4.8634e-05,4.43e-06,0.0,0 STARLINK-1062,1 44767U 19074BG  22343.18539679  .00000443  00000-0  48634-4 0  9991,2 44767  53.0547 153.0453 0001398  63.9475 296.1658 15.06395554169365,6925.361999999999,95.592,548.195,546.259,0.0
44767,STARLINK-1062,PAYLOAD,2022-12-09 20:22:22,15.06391873,0.0001178,53.0553,150.0689,70.4305,289.6811,-2.4504e-05,-6.46e-06,0.0,0 STARLINK-1062,1 44767U 19074BG  22343.84887063 -.00000646  00000-0 -24504-4 0  9994,2 44767  53.0553 150.0689 0001178  70.4305 289.6811 15.06391873169639,6925.373000000001,95.593,548.054,546.423,0.0
44767,STARLINK-1062,PAYLOAD,2022-12-10 12:17:46,15.06381988,0.000112,53.0556,147.089,64.3598,295.7507,3.1102e-05,1.82e-06,0.0,0 STARLINK-1062,1 44767U 19074BG  22344.51234563  .00000182  00000-0  31102-4 0  9995,2 44767  53.0556 147.0890 0001120  64.3598 295.7507 15.06381988169563,6925.404,95.593,548.044,546.493,0.0
44767,STARLINK-1062,PAYLOAD,2022-12-10 17:04:23,15.06387331,0.0001326,53.0554,146.1957,53.4845,306.6266,3.6664e-05,2.65e-06,0.0,0 STARLINK-1062,1 44767U 19074BG  22344.71138593  .00000265  00000-0  36664-4 0  9993,2 44767  53.0554 146.1957 0001326  53.4845 306.6266 15.06387331169592,6925.387,95.593,548.1709999999998,546.3340000000002,0.0
44767,STARLINK-1062,PAYLOAD,2022-12-10 21:51:00,15.06389511,0.0001356,53.055,145.3016,64.1001,296.0128,6.1641e-05,6.37e-06,0.0,0 STARLINK-1062,1 44767U 19074BG  22344.91042578  .00000637  00000-0  61641-4 0  9998,2 44767  53.0550 145.3016 0001356  64.1001 296.0128 15.06389511169794,6925.380999999999,95.593,548.185,546.307,0.0
44767,STARLINK-1062,PAYLOAD,2022-12-11 20:08:33,15.06396042,0.0001367,53.0546,141.1317,62.9637,297.1491,0.00019842,2.675e-05,0.0,0 STARLINK-1062,1 44767U 19074BG  22345.83927768  .00002675  00000-0  19842-3 0  9992,2 44767  53.0546 141.1317 0001367  62.9637 297.1491 15.06396042169769,6925.361,95.592,548.172,546.279,0.0
44767,STARLINK-1062,PAYLOAD,2022-12-12 21:37:11,15.064027,0.000138,53.0547,136.366,63.5257,296.5873,0.00015353,2.006e-05,0.0,0 STARLINK-1062,1 44767U 19074BG  22346.90082410  .00002006  00000-0  15353-3 0  9998,2 44767  53.0547 136.3660 0001380  63.5257 296.5873 15.06402700170091,6925.34,95.592,548.161,546.25,0.0
44767,STARLINK-1062,PAYLOAD,2022-12-13 10:21:30,15.06403538,0.0001364,53.0548,133.9831,67.25399999999999,292.8593,4.6328e-05,4.09e-06,0.0,0 STARLINK-1062,1 44767U 19074BG  22347.43160002  .00000409  00000-0  46328-4 0  9993,2 44767  53.0548 133.9831 0001364  67.2540 292.8593 15.06403538170002,6925.3380000000025,95.592,548.1469999999998,546.258,0.0
44767,STARLINK-1062,PAYLOAD,2022-12-13 16:43:39,15.06400825,0.0001463,53.0546,132.7923,62.3388,297.775,2.1586e-05,4e-07,0.0,0 STARLINK-1062,1 44767U 19074BG  22347.69698907  .00000040  00000-0  21586-4 0  9991,2 44767  53.0546 132.7923 0001463  62.3388 297.7750 15.06400825170213,6925.346,95.592,548.224,546.198,0.0
44767,STARLINK-1062,PAYLOAD,2022-12-14 10:14:35,15.06396927,0.0001408,53.0554,129.5156,58.0386,302.0739,4.8912e-05,4.47e-06,0.0,0 STARLINK-1062,1 44767U 19074BG  22348.42680292  .00000447  00000-0  48912-4 0  9994,2 44767  53.0554 129.5156 0001408  58.0386 302.0739 15.06396927170150,6925.358,95.592,548.198,546.248,0.0
